NORAD_CAT_ID,OBJECT_NAME,OBJECT_TYPE,EPOCH,MEAN_MOTION,ECCENTRICITY,INCLINATION,RA_OF_ASC_NODE,ARG_OF_PERICENTER,MEAN_ANOMALY,BSTAR,MEAN_MOTION_DOT,MEAN_MOTION_DDOT,TLE_LINE0,TLE_LINE1,TLE_LINE2,SEMIMAJOR_AXIS,PERIOD,APOGEE,PERIGEE,DECAYED
51867.0,STARLINK-3590,PAYLOAD,2022-09-08 22:00:00,15.08863485,0.0001455,53.2155,345.2846,62.1385,256.1839,-0.0018375,-0.00029431,0.0,0 STARLINK-3590,1 51867U 22022R   22251.91667824 -.00029431  00000-0 -18375-2 0  9997,2 51867  53.2155 345.2846 0001455  62.1385 256.1839 15.08863485  1308,6917.809,95.436,540.68,538.6669999999998,0.0
51867.0,STARLINK-3590,PAYLOAD,2022-09-09 00:00:02,15.08847425,0.0001549,53.2166,344.8963,62.615,348.6901,-0.0082553,-0.00129348,0.0,0 STARLINK-3590,1 51867U 22022R   22252.00002315 -.00129348  00000-0 -82553-2 0  9993,2 51867  53.2166 344.8963 0001549  62.6150 348.6901 15.08847425 30220,6917.858,95.437,540.794,538.651,0.0
51867.0,STARLINK-3590,PAYLOAD,2022-09-09 06:00:00,15.08694185,0.0001429,53.2166,343.7683,64.6584,265.2949,0.0125709999999999,0.00204838,0.0,0 STARLINK-3590,1 51867U 22022R   22252.25001157  .00204838  00000-0  12571-1 0  9991,2 51867  53.2166 343.7683 0001429  64.6584 265.2949 15.08694185 30259,6918.326,95.447,541.18,539.202,0.0
51867.0,STARLINK-3590,PAYLOAD,2022-09-09 14:00:01,15.08837516,0.000147,53.2174,342.2681,53.9016,287.5596,-7.6961e-05,-1.513e-05,0.0,0 STARLINK-3590,1 51867U 22022R   22252.58334491 -.00001513  00000-0 -76961-4 0  9990,2 51867  53.2174 342.2681 0001470  53.9016 287.5596 15.08837516  1303,6917.888000000001,95.438,540.77,538.736,0.0
51867.0,STARLINK-3590,PAYLOAD,2022-09-09 22:00:00,15.08838332,0.0001403,53.2174,340.7707,54.1884,298.8657,-0.00023105,-3.963e-05,0.0,0 STARLINK-3590,1 51867U 22022R   22252.91667824 -.00003963  00000-0 -23105-3 0  9998,2 51867  53.2174 340.7707 0001403  54.1884 298.8657 15.08838332  1307,6917.885,95.438,540.721,538.78,0.0
51867.0,STARLINK-3590,PAYLOAD,2022-09-10 06:00:02,15.08849988,0.0001476999999999,53.2161,339.2986,66.193,298.5696,-0.00095699,-0.0001549,0.0,0 STARLINK-3590,1 51867U 22022R   22253.25002315 -.00015490  00000-0 -95699-3 0  9999,2 51867  53.2161 339.2986 0001477  66.1930 298.5696 15.08849988 30414,6917.85,95.437,540.737,538.693,0.0
51867.0,STARLINK-3590,PAYLOAD,2022-09-10 14:00:01,15.08821264,0.0001649,53.2161,337.8037,59.6764,316.6252,0.0011003,0.00017258,0.0,0 STARLINK-3590,1 51867U 22022R   22253.58334491  .00017258  00000-0  11003-2 0  9996,2 51867  53.2161 337.8037 0001649  59.6764 316.6252 15.08821264  1301,6917.938,95.439,540.943,538.6619999999998,0.0
51867.0,STARLINK-3590,PAYLOAD,2022-09-10 22:00:00,15.08852649,0.0001513,53.216,336.3062,59.6597,328.2203,-0.003814,-0.00060499,0.0,0 STARLINK-3590,1 51867U 22022R   22253.91667824 -.00060499  00000-0 -38140-2 0  9990,2 51867  53.2160 336.3062 0001513  59.6597 328.2203 15.08852649  1302,6917.842,95.437,540.753,538.66,0.0
51867.0,STARLINK-3590,PAYLOAD,2022-09-11 14:00:01,15.08840961,0.0001546,53.2161,333.3146,55.9763,355.0949,1.3556e-05,-7.2e-07,0.0,0 STARLINK-3590,1 51867U 22022R   22254.58334491 -.00000072  00000-0  13556-4 0  9991,2 51867  53.2161 333.3146 0001546  55.9763 355.0949 15.08840961  1302,6917.877,95.437,540.812,538.673,0.0
51867.0,STARLINK-3590,PAYLOAD,2022-09-11 22:00:00,15.08841133,0.0001393,53.2159,331.81699999999995,57.4565,5.2146,-0.0012409,-0.00019983,0.0,0 STARLINK-3590,1 51867U 22022R   22254.91667824 -.00019983  00000-0 -12409-2 0  9993,2 51867  53.2159 331.8170 0001393  57.4565   5.2146 15.08841133  1301,6917.877,95.437,540.706,538.778,0.0
51867.0,STARLINK-3590,PAYLOAD,2022-09-12 14:00:01,15.08808317,0.0001556,53.2158,328.8254,55.9342,29.9304,0.002062,0.00032653,0.0,0 STARLINK-3590,1 51867U 22022R   22255.58334491  .00032653  00000-0  20620-2 0  9999,2 51867  53.2158 328.8254 0001556  55.9342  29.9304 15.08808317  1302,6917.977,95.44,540.919,538.766,0.0
51867.0,STARLINK-3590,PAYLOAD,2022-09-12 22:00:00,15.08848582,0.0001485,53.2155,327.3277,60.0123,37.4306,-0.00089588,-0.00014521,0.0,0 STARLINK-3590,1 51867U 22022R   22255.91667824 -.00014521  00000-0 -89588-3 0  9990,2 51867  53.2155 327.3277 0001485  60.0123  37.4306 15.08848582 30815,6917.854,95.437,540.746,538.692,0.0
51867.0,STARLINK-3590,PAYLOAD,2022-09-13 08:00:01,15.087856,0.0001486,53.2172,325.4358,60.2917,141.606,0.0051619,0.00082705,0.0,0 STARLINK-3590,1 51867U 22022R   22256.33334491  .00082705  00000-0  51619-2 0  9998,2 51867  53.2172 325.4358 0001486  60.2917 141.6060 15.08785600 30879,6918.047,95.441,540.94,538.884,0.0
51867.0,STARLINK-3590,PAYLOAD,2022-09-13 14:00:01,15.08836684,0.0001567,53.2176,324.3115,55.4238,65.1447,-7.2924e-06,-4.04e-06,0.0,0 STARLINK-3590,1 51867U 22022R   22256.58334491 -.00000404  00000-0 -72924-5 0  9998,2 51867  53.2176 324.3115 0001567  55.4238  65.1447 15.08836684  1308,6917.891,95.438,540.84,538.6709999999998,0.0
51867.0,STARLINK-3590,PAYLOAD,2022-09-13 16:00:00,15.08834043,0.0001525,53.2174,323.9374,53.5852,159.8822,0.00035851,5.421e-05,0.0,0 STARLINK-3590,1 51867U 22022R   22256.66667824  .00005421  00000-0  35851-3 0  9994,2 51867  53.2174 323.9374 0001525  53.5852 159.8822 15.08834043 30928,6917.899,95.438,540.819,538.7090000000002,0.0
51867.0,STARLINK-3590,PAYLOAD,2022-09-13 22:00:00,15.08854657,0.0001389,53.215,322.8381,58.1461,74.0564,-0.0016579999999999,-0.00026589,0.0,0 STARLINK-3590,1 51867U 22022R   22256.91667824 -.00026589  00000-0 -16580-2 0  9999,2 51867  53.2150 322.8381 0001389  58.1461  74.0564 15.08854657  1307,6917.8359999999975,95.437,540.661,538.74,0.0
51867.0,STARLINK-3590,PAYLOAD,2022-09-14 14:00:01,15.08812077,0.000156,53.2146,319.8468,55.2712,100.1203,0.0025874,0.00041099,0.0,0 STARLINK-3590,1 51867U 22022R   22257.58334491  .00041099  00000-0  25874-2 0  9991,2 51867  53.2146 319.8468 0001560  55.2712 100.1203 15.08812077  1303,6917.965999999999,95.439,540.91,538.752,0.0
51867.0,STARLINK-3590,PAYLOAD,2022-09-14 22:00:00,15.08835424,0.0001391,53.2143,318.3488,59.0061,107.9689,-0.0019311,-0.00030886,0.0,0 STARLINK-3590,1 51867U 22022R   22257.91667824 -.00030886  00000-0 -19311-2 0  9990,2 51867  53.2143 318.3488 0001391  59.0061 107.9689 15.08835424  1301,6917.894,95.438,540.722,538.797,0.0
51867.0,STARLINK-3590,PAYLOAD,2022-09-15 06:00:00,15.08894248,0.0001357,53.2144,316.8524,67.8537,110.6972,-0.0032536,-0.00051773,0.0,0 STARLINK-3590,1 51867U 22022R   22258.25001157 -.00051773  00000-0 -32536-2 0  9991,2 51867  53.2144 316.8524 0001357  67.8537 110.6972 15.08894248 31165,6917.715,95.434,540.518,538.641,0.0
51867.0,STARLINK-3590,PAYLOAD,2022-09-15 14:00:01,15.08814983,0.0001524,53.2143,315.3572,59.0299,131.1691,0.0022447,0.00035593,0.0,0 STARLINK-3590,1 51867U 22022R   22258.58334491  .00035593  00000-0  22447-2 0  9997,2 51867  53.2143 315.3572 0001524  59.0299 131.1691 15.08814983  1302,6917.956999999999,95.439,540.876,538.768,0.0
51867.0,STARLINK-3590,PAYLOAD,2022-09-15 21:06:34,15.08842475,0.0001395,53.2164,314.0256,60.1113,300.0017,0.00012816,1.752e-05,0.0,0 STARLINK-3590,1 51867U 22022R   22258.87957131  .00001752  00000-0  12816-3 0  9991,2 51867  53.2164 314.0256 0001395  60.1113 300.0017 15.08842475 31268,6917.873000000001,95.437,540.703,538.773,0.0
51867.0,STARLINK-3590,PAYLOAD,2022-09-16 03:28:07,15.0884481,0.0001567,53.2174,312.8382,62.3312,297.7839,3.2692e-05,2.32e-06,0.0,0 STARLINK-3590,1 51867U 22022R   22259.14453249  .00000232  00000-0  32692-4 0  9990,2 51867  53.2174 312.8382 0001567  62.3312 297.7839 15.08844810 31305,6917.866,95.437,540.815,538.6469999999998,0.0
51867.0,STARLINK-3590,PAYLOAD,2022-09-16 09:49:40,15.08841599,0.0001591,53.2169,311.648,62.3632,297.7522,1.5001e-05,-4.9e-07,0.0,0 STARLINK-3590,1 51867U 22022R   22259.40949466 -.00000049  00000-0  15001-4 0  9992,2 51867  53.2169 311.6480 0001591  62.3632 297.7522 15.08841599 31341,6917.876,95.437,540.841,538.64,0.0
51867.0,STARLINK-3590,PAYLOAD,2022-09-17 09:40:28,15.08837971,0.0001312,53.2148,307.1896,56.602,303.5098,-0.00016437,-2.903e-05,0.0,0 STARLINK-3590,1 51867U 22022R   22260.40310705 -.00002903  00000-0 -16437-3 0  9997,2 51867  53.2148 307.1896 0001312  56.6020 303.5098 15.08837971 31496,6917.887,95.438,540.659,538.844,0.0
51867.0,STARLINK-3590,PAYLOAD,2022-09-17 14:26:37,15.08843332,0.000118,53.2148,306.2965,78.7288,281.3837,-0.00029195,-4.932e-05,0.0,0 STARLINK-3590,1 51867U 22022R   22260.60182728 -.00004932  00000-0 -29195-3 0  9990,2 51867  53.2148 306.2965 0001180  78.7288 281.3837 15.08843332 31523,6917.87,95.437,540.552,538.919,0.0
51867.0,STARLINK-3590,PAYLOAD,2022-09-18 09:31:17,15.08770042,0.00018,53.2151,302.7265,66.2977,293.8204,0.00085297,0.00013287,0.0,0 STARLINK-3590,1 51867U 22022R   22261.39672507  .00013287  00000-0  85297-3 0  9992,2 51867  53.2151 302.7265 0001800  66.2977 293.8204 15.08770042 31643,6918.094,95.442,541.2040000000002,538.714,0.0
51867.0,STARLINK-3590,PAYLOAD,2022-09-18 12:42:01,15.08846834,0.0001531999999999,53.2152,302.1311,64.6074,295.5076,-0.00015133,-2.696e-05,0.0,0 STARLINK-3590,1 51867U 22022R   22261.52918650 -.00002696  00000-0 -15133-3 0  9995,2 51867  53.2152 302.1311 0001532  64.6074 295.5076 15.08846834 31663,6917.86,95.437,540.784,538.665,0.0
51867.0,STARLINK-3590,PAYLOAD,2022-09-18 14:17:24,15.08844699,0.0001561999999999,53.2153,301.8339,65.1918,294.9236,-9.716e-05,-1.834e-05,0.0,0 STARLINK-3590,1 51867U 22022R   22261.59542642 -.00001834  00000-0 -97160-4 0  9990,2 51867  53.2153 301.8339 0001562  65.1918 294.9236 15.08844699 31675,6917.866,95.437,540.812,538.65,0.0
51867.0,STARLINK-3590,PAYLOAD,2022-09-19 12:32:48,15.08839674,0.0001615,53.2153,297.6701,64.2151,295.9008,0.00021946,3.206e-05,0.0,0 STARLINK-3590,1 51867U 22022R   22262.52278596  .00003206  00000-0  21946-3 0  9999,2 51867  53.2153 297.6701 0001615  64.2151 295.9008 15.08839674 31819,6917.880999999999,95.438,540.864,538.629,0.0
